STARLINK-36224          
1 67203U 25304M   26009.44918019 -.00124843  00000+0 -20827-2 0  9999
2 67203  70.0000 329.7222 0003406 278.8889  81.1912 15.52192810  4861
STARLINK-36185          
1 67204U 25304N   26011.25224248  .03705166  00000+0  42889-1 0  9991
2 67204  69.9996 324.7768 0004796 241.1885 118.8823 15.57720859  5141
STARLINK-36197          
1 67205U 25304P   26011.25248746  .00134503  00000+0  21472-2 0  9995
2 67205  69.9998 324.7769 0003165 269.5962  90.4862 15.52584435  5112
STARLINK-36056          
1 67206U 25304Q   26011.25214469  .00125424  00000+0  20051-2 0  9995
2 67206  69.9999 324.7753 0003211 270.3290  89.7529 15.52579925  5112
STARLINK-36225          
1 67207U 25304R   26011.25180161  .00138031  00000+0  22024-2 0  9997
2 67207  70.0000 324.7742 0003225 270.1828  89.8989 15.52585574  5148
STARLINK-36265          
1 67208U 25304S   26011.25002315 -.00034515  00000+0 -78747-3 0  9990
2 67208  70.0001 324.9136 0003340 274.7126 317.0016 15.42741387  5218
STARLINK-36226          
1 67209U 25304T   26011.25002315 -.00002114  00000+0 -44843-4 0  9992
2 67209  70.0002 324.8628 0003876 259.9231  16.7132 15.42746464  5214
STARLINK-36173          
1 67210U 25304U   26011.25002315 -.00339617  00000+0 -80481-2 0  9991
2 67210  70.0000 324.8105 0002292 273.0704  49.5356 15.42895542  5211
STARLINK-36280          
1 67211U 25304V   26010.02634008 -.00179396  00000+0 -30311-2 0  9999
2 67211  69.9998 328.1232 0003554 283.2007  76.8783 15.52039234  4950
STARLINK-36213          
1 67212U 25304W   26010.99196590  .00526674  00000+0  74087-2 0  9996
2 67212  69.9998 325.4721 0007412 339.9547  20.1349 15.54674529  5101
STARLINK-36199          
1 67213U 25304X   26011.24974151  .00056590  00000+0  91445-3 0  9996
2 67213  70.0000 324.7661 0003288 270.4140  89.6670 15.52567148  5146
STARLINK-36203          
1 67214U 25304Y   26011.24939803  .00058358  00000+0  94268-3 0  9992
2 67214  69.9999 324.7647 0003352 267.9842  92.0961 15.52568179  5143
