CCSDS_OMM_VERS = 2.0
CREATION_DATE  = 
ORIGINATOR     = 

OBJECT_NAME    = STARLINK-36224
OBJECT_ID      = 2025-304M
CENTER_NAME    = EARTH
REF_FRAME      = TEME
TIME_SYSTEM    = UTC
MEAN_ELEMENT_THEORY = SGP/SGP4

EPOCH          = 2026-01-09T10:46:49.168416
MEAN_MOTION    = 15.52192810
ECCENTRICITY   = .00034067
INCLINATION    = 70.0000
RA_OF_ASC_NODE = 329.7222
ARG_OF_PERICENTER = 278.8889
MEAN_ANOMALY   = 81.1912

EPHEMERIS_TYPE = 0
CLASSIFICATION_TYPE = U
NORAD_CAT_ID   = 67203
ELEMENT_SET_NO = 999
REV_AT_EPOCH   = 486
BSTAR          = -.20827316E-2
MEAN_MOTION_DOT = -.124843E-2
MEAN_MOTION_DDOT = 0

CCSDS_OMM_VERS = 2.0
CREATION_DATE  = 
ORIGINATOR     = 

OBJECT_NAME    = STARLINK-36185
OBJECT_ID      = 2025-304N
CENTER_NAME    = EARTH
REF_FRAME      = TEME
TIME_SYSTEM    = UTC
MEAN_ELEMENT_THEORY = SGP/SGP4

EPOCH          = 2026-01-11T06:03:13.750272
MEAN_MOTION    = 15.57720859
ECCENTRICITY   = .00047967
INCLINATION    = 69.9996
RA_OF_ASC_NODE = 324.7768
ARG_OF_PERICENTER = 241.1885
MEAN_ANOMALY   = 118.8823

EPHEMERIS_TYPE = 0
CLASSIFICATION_TYPE = U
NORAD_CAT_ID   = 67204
ELEMENT_SET_NO = 999
REV_AT_EPOCH   = 514
BSTAR          = .42889082E-1
MEAN_MOTION_DOT = .3705166E-1
MEAN_MOTION_DDOT = 0

CCSDS_OMM_VERS = 2.0
CREATION_DATE  = 
ORIGINATOR     = 

OBJECT_NAME    = STARLINK-36197
OBJECT_ID      = 2025-304P
CENTER_NAME    = EARTH
REF_FRAME      = TEME
TIME_SYSTEM    = UTC
MEAN_ELEMENT_THEORY = SGP/SGP4

EPOCH          = 2026-01-11T06:03:34.916544
MEAN_MOTION    = 15.52584435
ECCENTRICITY   = .00031658
INCLINATION    = 69.9998
RA_OF_ASC_NODE = 324.7769
ARG_OF_PERICENTER = 269.5962
MEAN_ANOMALY   = 90.4862

EPHEMERIS_TYPE = 0
CLASSIFICATION_TYPE = U
NORAD_CAT_ID   = 67205
ELEMENT_SET_NO = 999
REV_AT_EPOCH   = 511
BSTAR          = .21472173E-2
MEAN_MOTION_DOT = .134503E-2
MEAN_MOTION_DDOT = 0

CCSDS_OMM_VERS = 2.0
CREATION_DATE  = 
ORIGINATOR     = 

OBJECT_NAME    = STARLINK-36056
OBJECT_ID      = 2025-304Q
CENTER_NAME    = EARTH
REF_FRAME      = TEME
TIME_SYSTEM    = UTC
MEAN_ELEMENT_THEORY = SGP/SGP4

EPOCH          = 2026-01-11T06:03:05.301216
MEAN_MOTION    = 15.52579925
ECCENTRICITY   = .00032116
INCLINATION    = 69.9999
RA_OF_ASC_NODE = 324.7753
ARG_OF_PERICENTER = 270.3290
MEAN_ANOMALY   = 89.7529

EPHEMERIS_TYPE = 0
CLASSIFICATION_TYPE = U
NORAD_CAT_ID   = 67206
ELEMENT_SET_NO = 999
REV_AT_EPOCH   = 511
BSTAR          = .20050827E-2
MEAN_MOTION_DOT = .125424E-2
MEAN_MOTION_DDOT = 0

CCSDS_OMM_VERS = 2.0
CREATION_DATE  = 
ORIGINATOR     = 

OBJECT_NAME    = STARLINK-36225
OBJECT_ID      = 2025-304R
CENTER_NAME    = EARTH
REF_FRAME      = TEME
TIME_SYSTEM    = UTC
MEAN_ELEMENT_THEORY = SGP/SGP4

EPOCH          = 2026-01-11T06:02:35.659104
MEAN_MOTION    = 15.52585574
ECCENTRICITY   = .00032257
INCLINATION    = 70.0000
RA_OF_ASC_NODE = 324.7742
ARG_OF_PERICENTER = 270.1828
MEAN_ANOMALY   = 89.8989

EPHEMERIS_TYPE = 0
CLASSIFICATION_TYPE = U
NORAD_CAT_ID   = 67207
ELEMENT_SET_NO = 999
REV_AT_EPOCH   = 514
BSTAR          = .22023856E-2
MEAN_MOTION_DOT = .138031E-2
MEAN_MOTION_DDOT = 0

CCSDS_OMM_VERS = 2.0
CREATION_DATE  = 
ORIGINATOR     = 

OBJECT_NAME    = STARLINK-36265
OBJECT_ID      = 2025-304S
CENTER_NAME    = EARTH
REF_FRAME      = TEME
TIME_SYSTEM    = UTC
MEAN_ELEMENT_THEORY = SGP/SGP4

EPOCH          = 2026-01-11T06:00:02.000160
MEAN_MOTION    = 15.42741387
ECCENTRICITY   = .00033402
INCLINATION    = 70.0001
RA_OF_ASC_NODE = 324.9136
ARG_OF_PERICENTER = 274.7126
MEAN_ANOMALY   = 317.0016

EPHEMERIS_TYPE = 0
CLASSIFICATION_TYPE = U
NORAD_CAT_ID   = 67208
ELEMENT_SET_NO = 999
REV_AT_EPOCH   = 521
BSTAR          = -.78746678E-3
MEAN_MOTION_DOT = -.34515E-3
MEAN_MOTION_DDOT = 0

CCSDS_OMM_VERS = 2.0
CREATION_DATE  = 
ORIGINATOR     = 

OBJECT_NAME    = STARLINK-36226
OBJECT_ID      = 2025-304T
CENTER_NAME    = EARTH
REF_FRAME      = TEME
TIME_SYSTEM    = UTC
MEAN_ELEMENT_THEORY = SGP/SGP4

EPOCH          = 2026-01-11T06:00:02.000160
MEAN_MOTION    = 15.42746464
ECCENTRICITY   = .00038768
INCLINATION    = 70.0002
RA_OF_ASC_NODE = 324.8628
ARG_OF_PERICENTER = 259.9231
MEAN_ANOMALY   = 16.7132

EPHEMERIS_TYPE = 0
CLASSIFICATION_TYPE = U
NORAD_CAT_ID   = 67209
ELEMENT_SET_NO = 999
REV_AT_EPOCH   = 521
BSTAR          = -.44843111E-4
MEAN_MOTION_DOT = -.2114E-4
MEAN_MOTION_DDOT = 0

CCSDS_OMM_VERS = 2.0
CREATION_DATE  = 
ORIGINATOR     = 

OBJECT_NAME    = STARLINK-36173
OBJECT_ID      = 2025-304U
CENTER_NAME    = EARTH
REF_FRAME      = TEME
TIME_SYSTEM    = UTC
MEAN_ELEMENT_THEORY = SGP/SGP4

EPOCH          = 2026-01-11T06:00:02.000160
MEAN_MOTION    = 15.42895542
ECCENTRICITY   = .00022923
INCLINATION    = 70.0000
RA_OF_ASC_NODE = 324.8105
ARG_OF_PERICENTER = 273.0704
MEAN_ANOMALY   = 49.5356

EPHEMERIS_TYPE = 0
CLASSIFICATION_TYPE = U
NORAD_CAT_ID   = 67210
ELEMENT_SET_NO = 999
REV_AT_EPOCH   = 521
BSTAR          = -.80480616E-2
MEAN_MOTION_DOT = -.339617E-2
MEAN_MOTION_DDOT = 0

CCSDS_OMM_VERS = 2.0
CREATION_DATE  = 
ORIGINATOR     = 

OBJECT_NAME    = STARLINK-36280
OBJECT_ID      = 2025-304V
CENTER_NAME    = EARTH
REF_FRAME      = TEME
TIME_SYSTEM    = UTC
MEAN_ELEMENT_THEORY = SGP/SGP4

EPOCH          = 2026-01-10T00:37:55.782912
MEAN_MOTION    = 15.52039234
ECCENTRICITY   = .00035542
INCLINATION    = 69.9998
RA_OF_ASC_NODE = 328.1232
ARG_OF_PERICENTER = 283.2007
MEAN_ANOMALY   = 76.8783

EPHEMERIS_TYPE = 0
CLASSIFICATION_TYPE = U
NORAD_CAT_ID   = 67211
ELEMENT_SET_NO = 999
REV_AT_EPOCH   = 495
BSTAR          = -.3031072E-2
MEAN_MOTION_DOT = -.179396E-2
MEAN_MOTION_DDOT = 0

CCSDS_OMM_VERS = 2.0
CREATION_DATE  = 
ORIGINATOR     = 

OBJECT_NAME    = STARLINK-36213
OBJECT_ID      = 2025-304W
CENTER_NAME    = EARTH
REF_FRAME      = TEME
TIME_SYSTEM    = UTC
MEAN_ELEMENT_THEORY = SGP/SGP4

EPOCH          = 2026-01-10T23:48:25.853760
MEAN_MOTION    = 15.54674529
ECCENTRICITY   = .00074122
INCLINATION    = 69.9998
RA_OF_ASC_NODE = 325.4721
ARG_OF_PERICENTER = 339.9547
MEAN_ANOMALY   = 20.1349

EPHEMERIS_TYPE = 0
CLASSIFICATION_TYPE = U
NORAD_CAT_ID   = 67212
ELEMENT_SET_NO = 999
REV_AT_EPOCH   = 510
BSTAR          = .74086682E-2
MEAN_MOTION_DOT = .526674E-2
MEAN_MOTION_DDOT = 0

CCSDS_OMM_VERS = 2.0
CREATION_DATE  = 
ORIGINATOR     = 

OBJECT_NAME    = STARLINK-36199
OBJECT_ID      = 2025-304X
CENTER_NAME    = EARTH
REF_FRAME      = TEME
TIME_SYSTEM    = UTC
MEAN_ELEMENT_THEORY = SGP/SGP4

EPOCH          = 2026-01-11T05:59:37.666464
MEAN_MOTION    = 15.52567148
ECCENTRICITY   = .00032883
INCLINATION    = 70.0000
RA_OF_ASC_NODE = 324.7661
ARG_OF_PERICENTER = 270.4140
MEAN_ANOMALY   = 89.6670

EPHEMERIS_TYPE = 0
CLASSIFICATION_TYPE = U
NORAD_CAT_ID   = 67213
ELEMENT_SET_NO = 999
REV_AT_EPOCH   = 514
BSTAR          = .91444886E-3
MEAN_MOTION_DOT = .5659E-3
MEAN_MOTION_DDOT = 0

CCSDS_OMM_VERS = 2.0
CREATION_DATE  = 
ORIGINATOR     = 

OBJECT_NAME    = STARLINK-36203
OBJECT_ID      = 2025-304Y
CENTER_NAME    = EARTH
REF_FRAME      = TEME
TIME_SYSTEM    = UTC
MEAN_ELEMENT_THEORY = SGP/SGP4

EPOCH          = 2026-01-11T05:59:07.989792
MEAN_MOTION    = 15.52568179
ECCENTRICITY   = .00033521
INCLINATION    = 69.9999
RA_OF_ASC_NODE = 324.7647
ARG_OF_PERICENTER = 267.9842
MEAN_ANOMALY   = 92.0961

EPHEMERIS_TYPE = 0
CLASSIFICATION_TYPE = U
NORAD_CAT_ID   = 67214
ELEMENT_SET_NO = 999
REV_AT_EPOCH   = 514
BSTAR          = .94268022E-3
MEAN_MOTION_DOT = .58358E-3
MEAN_MOTION_DDOT = 0

